     2.100          NAVIGATION                              RINEX VERSION / TYPE
fic2rin                                 08/04/2014 00:25:07 PGM / RUN BY / DATE
                                                            END OF HEADER
18 14  8  3  4  0  0.0  .335587654263D-03  .250111042988D-11  .000000000000D+00
     .930000000000D+02  .360625000000D+02  .519093050881D-08  .301410555892D+01
     .171363353729D-05  .154887170065D-01  .104233622551D-04  .515372242355D+04
     .144000000000D+05  .122934579849D-06 -.191587182496D+01 -.271946191788D-06
     .925389591311D+00  .155843750000D+03 -.201799556134D+01 -.807319342377D-08
    -.650027076237D-10  .100000000000D+01  .180400000000D+04  .000000000000D+00
     .340000000000D+01  .000000000000D+00 -.107102096081D-07  .930000000000D+02
     .720600000000D+04  .400000000000D+01
19 14  8  3  4  0  0.0 -.471522100270D-03 -.204636307899D-11  .000000000000D+00
     .750000000000D+02 -.687500000000D+01  .453983195937D-08  .642319327338D+00
    -.290572643280D-06  .105496648466D-01  .623054802418D-05  .515363588524D+04
     .144000000000D+05 -.558793544769D-08  .237830699435D+01  .173225998878D-06
     .966543699053D+00  .262937500000D+03  .478350893006D+00 -.820034157714D-08
     .236795577772D-09  .100000000000D+01  .180400000000D+04  .000000000000D+00
     .240000000000D+01  .000000000000D+00 -.149011611938D-07  .750000000000D+02
     .720600000000D+04  .400000000000D+01
20 14  8  3  4  0  0.0  .217697583139D-03  .432009983342D-11  .000000000000D+00
     .630000000000D+02  .133750000000D+02  .531129266523D-08 -.275941259218D+01
     .717118382454D-06  .580601627007D-02  .102631747723D-04  .515375661850D+04
     .144000000000D+05  .856816768646D-07 -.196887916939D+01 -.242143869400D-07
     .926461945373D+00  .162031250000D+03  .132602071578D+01 -.824820071352D-08
     .571452374714D-11  .100000000000D+01  .180400000000D+04  .000000000000D+00
     .240000000000D+01  .000000000000D+00 -.791624188423D-08  .630000000000D+02
     .720600000000D+04  .400000000000D+01
21 14  8  3  4  0  0.0 -.376217998564D-03 -.216004991671D-11  .000000000000D+00
     .740000000000D+02 -.460625000000D+02  .520521681817D-08 -.232357184859D+01
    -.260770320892D-05  .215657792287D-01  .695139169693D-05  .515371902275D+04
     .144000000000D+05  .303611159325D-06 -.296053528801D+01  .260770320892D-07
     .932960280146D+00  .221531250000D+03 -.200469539335D+01 -.810498046211D-08
     .105361531588D-09  .100000000000D+01  .180400000000D+04  .000000000000D+00
     .240000000000D+01  .000000000000D+00 -.111758708954D-07  .740000000000D+02
     .720600000000D+04  .400000000000D+01
22 14  8  3  4  0  0.0  .255622901022D-03  .341060513165D-11  .000000000000D+00
     .810000000000D+02  .290312500000D+02  .535129433146D-08  .245460895243D+01
     .146776437759D-05  .738320511300D-02  .105593353510D-04  .515372897148D+04
     .144000000000D+05  .409781932831D-07 -.191411650321D+01 -.139698386192D-06
     .923172720364D+00  .155875000000D+03 -.204719246135D+01 -.822748556494D-08
    -.353586156854D-10  .100000000000D+01  .180400000000D+04  .000000000000D+00
     .340000000000D+01  .000000000000D+00 -.172294676304D-07  .810000000000D+02
     .720600000000D+04  .400000000000D+01
23 14  8  3  4  0  0.0 -.415216200054D-04 -.295585778076D-11  .000000000000D+00
     .860000000000D+02  .583125000000D+02  .505021036153D-08  .250113039835D+00
     .303424894810D-05  .964857486542D-02  .564754009247D-05  .515375216484D+04
     .144000000000D+05  .167638063431D-07 -.848429435669D+00  .558793544769D-07
     .950999069477D+00  .260875000000D+03 -.274800270159D+01 -.851285459456D-08
    -.514307137242D-10  .100000000000D+01  .180400000000D+04  .000000000000D+00
     .240000000000D+01  .000000000000D+00 -.200234353542D-07  .860000000000D+02
     .720600000000D+04  .400000000000D+01
24 14  8  3  4  0  0.0 -.328817404807D-04 -.682121026330D-12  .000000000000D+00
     .790000000000D+02 -.265625000000D+02  .469805283562D-08 -.488396188233D+00
    -.152923166752D-05  .211109523661D-02  .592693686485D-05  .515371899033D+04
     .144000000000D+05 -.745058059692D-08  .178199620947D+00  .223517417908D-07
     .956542298683D+00  .264000000000D+03  .307462529928D+00 -.830713173967D-08
    -.385373195198D-09  .100000000000D+01  .180400000000D+04  .000000000000D+00
     .340000000000D+01  .000000000000D+00  .279396772385D-08  .790000000000D+02
     .720600000000D+04  .400000000000D+01
25 14  8  3  4  0  0.0  .241762027144D-04 -.454747350886D-12  .000000000000D+00
     .690000000000D+02 -.150625000000D+02  .381515891668D-08 -.253694642335D+01
    -.698491930962D-06  .367820577230D-02  .952184200287D-05  .515358103752D+04
     .144000000000D+05 -.465661287308D-07  .123459734008D+01  .149011611938D-07
     .976564057379D+00  .203375000000D+03  .729236672503D+00 -.772425031746D-08
     .110004582132D-09  .100000000000D+01  .180400000000D+04  .000000000000D+00
     .240000000000D+01  .000000000000D+00  .558793544769D-08  .690000000000D+02
     .720600000000D+04  .400000000000D+01
26 14  8  3  4  0  0.0 -.678701326251D-05 -.129602995003D-10  .000000000000D+00
     .880000000000D+02  .493750000000D+02  .460019161645D-08  .198438981392D+00
     .278279185295D-05  .212222747505D-01  .572390854359D-05  .515368955421D+04
     .144000000000D+05 -.255182385445D-06 -.758543244554D+00  .132247805595D-06
     .974213440609D+00  .277968750000D+03  .128968773503D+01 -.853464121635D-08
    -.113933317209D-09  .100000000000D+01  .180400000000D+04  .000000000000D+00
     .240000000000D+01  .000000000000D+00 -.605359673500D-08  .880000000000D+02
     .720600000000D+04  .400000000000D+01
27 14  8  3  4  0  0.0  .282749533653D-05  .318323145621D-11  .000000000000D+00
     .700000000000D+02 -.384375000000D+01  .452697428094D-08  .134444142767D+01
    -.268220901489D-06  .142092909664D-02  .654533505440D-05  .515367506790D+04
     .144000000000D+05  .186264514923D-07  .228174056777D+01  .186264514923D-08
     .964155889054D+00  .254218750000D+03  .306567633681D+00 -.813248160764D-08
     .332871008271D-09  .100000000000D+01  .180400000000D+04  .000000000000D+00
     .240000000000D+01  .000000000000D+00  .186264514923D-08  .700000000000D+02
     .720600000000D+04  .400000000000D+01
28 14  8  3  4  0  0.0  .374344643205D-03  .284217094304D-11  .000000000000D+00
     .640000000000D+02 -.179375000000D+02  .355907682126D-08  .227898444912D+01
    -.102818012238D-05  .191907761618D-01  .871717929840D-05  .515367974663D+04
     .144000000000D+05  .281259417534D-06  .130209778027D+01 -.178813934326D-06
     .986996765497D+00  .221187500000D+03 -.171120286357D+01 -.737066416060D-08
     .115004790411D-09  .100000000000D+01  .180400000000D+04  .000000000000D+00
     .240000000000D+01  .000000000000D+00 -.107102096081D-07  .640000000000D+02
     .720600000000D+04  .400000000000D+01
29 14  8  3  4  0  0.0  .551046803594D-03  .250111042988D-11  .000000000000D+00
     .730000000000D+02 -.668750000000D+01  .439446876155D-08 -.216560559305D+01
    -.262632966042D-06  .130287965294D-02  .620074570179D-05  .515366180992D+04
     .144000000000D+05  .149011611938D-07  .233682263139D+01  .409781932831D-07
     .970166236781D+00  .264750000000D+03 -.795233380662D+00 -.809069415274D-08
     .349657421778D-09  .100000000000D+01  .180400000000D+04  .000000000000D+00
     .240000000000D+01  .000000000000D+00 -.977888703346D-08  .730000000000D+02
     .720600000000D+04  .400000000000D+01
30 14  8  3  4  0  0.0 -.427127815783D-04 -.579802872380D-11  .000000000000D+00
     .730000000000D+02 -.278437500000D+02  .454590364085D-08 -.128904339568D+01
    -.151246786118D-05  .958870514296D-03  .583752989769D-05  .515367623901D+04
     .144000000000D+05 -.353902578354D-07  .267476916299D+00 -.335276126862D-07
     .958809381368D+00  .266500000000D+03  .295056940144D+01 -.817498337801D-08
    -.286440502825D-09  .100000000000D+01  .180400000000D+04  .000000000000D+00
     .240000000000D+01  .000000000000D+00  .325962901115D-08  .730000000000D+02
     .720600000000D+04  .400000000000D+01
31 14  8  3  4  0  0.0  .333041418344D-03 -.341060513165D-12  .000000000000D+00
     .480000000000D+02 -.270937500000D+02  .427910681340D-08 -.137914339374D+01
    -.138580799103D-05  .796332920436D-02  .589340925217D-05  .515359460258D+04
     .144000000000D+05 -.726431608200D-07  .220415567296D+00 -.223517417908D-07
     .978143545159D+00  .277250000000D+03 -.633800101438D+00 -.816105422638D-08
    -.258939357292D-09  .100000000000D+01  .180400000000D+04  .000000000000D+00
     .240000000000D+01  .000000000000D+00 -.130385160446D-07  .480000000000D+02
     .720600000000D+04  .400000000000D+01
32 14  8  3  4  0  0.0 -.371362548321D-03  .841282599140D-11  .000000000000D+00
     .360000000000D+02  .285312500000D+02  .494234872581D-08 -.795606929479D+00
     .145472586155D-05  .114087278489D-01  .101402401924D-04  .515368760681D+04
     .144000000000D+05  .100582838058D-06 -.182025890205D+01 -.204890966415D-06
     .947262283699D+00  .177656250000D+03 -.122180929875D+00 -.821498504424D-08
     .110361739867D-09  .100000000000D+01  .180400000000D+04  .000000000000D+00
     .240000000000D+01  .000000000000D+00 -.325962901115D-08  .360000000000D+02
     .720600000000D+04  .400000000000D+01
18 14  8  3  3 59 44.0  .335588119924D-03  .250111042988D-11  .000000000000D+00
     .500000000000D+01  .360625000000D+02  .519093050881D-08  .301177174376D+01
     .171363353729D-05  .154887140961D-01  .104233622551D-04  .515372242928D+04
     .143840000000D+05  .122934579849D-06 -.191587166843D+01 -.271946191788D-06
     .925389586922D+00  .155843750000D+03 -.201799554379D+01 -.807319342377D-08
    -.650027076237D-10  .100000000000D+01  .180400000000D+04  .000000000000D+00
     .240000000000D+01  .000000000000D+00 -.107102096081D-07  .500000000000D+01
     .921600000000D+04  .400000000000D+01
